NORAD_CAT_ID,OBJECT_NAME,OBJECT_TYPE,EPOCH,MEAN_MOTION,ECCENTRICITY,INCLINATION,RA_OF_ASC_NODE,ARG_OF_PERICENTER,MEAN_ANOMALY,BSTAR,MEAN_MOTION_DOT,MEAN_MOTION_DDOT,TLE_LINE0,TLE_LINE1,TLE_LINE2,SEMIMAJOR_AXIS,PERIOD,APOGEE,PERIGEE,DECAYED
53551.0,STARLINK-4514,PAYLOAD,2023-09-26 17:04:34,15.08829024,9.94e-05,53.2156,121.8335,88.0704,272.0402,-9.6282e-05,-1.819e-05,0.0,0 STARLINK-4514,1 53551U 22101AA  23269.71150962 -.00001819  00000-0 -96282-4 0  9990,2 53551  53.2156 121.8335 0000994  88.0704 272.0402 15.08829024 61198,6917.914,95.438,540.467,539.091,0.0
53551.0,STARLINK-4514,PAYLOAD,2023-09-26 20:15:20,15.08832848,0.0001181,53.2153,121.2346,114.5032,245.6084,-8.3503e-05,-1.616e-05,0.0,0 STARLINK-4514,1 53551U 22101AA  23269.84398660 -.00001616  00000-0 -83503-4 0  9990,2 53551  53.2153 121.2346 0001181 114.5032 245.6084 15.08832848 61874,6917.902,95.438,540.584,538.95,0.0
53551.0,STARLINK-4514,PAYLOAD,2023-09-27 07:23:02,15.08834765,0.0001196,53.2158,119.1555,87.036,273.0769,-3.2208e-05,-8e-06,0.0,0 STARLINK-4514,1 53551U 22101AA  23270.30766658 -.00000800  00000-0 -32208-4 0  9999,2 53551  53.2158 119.1555 0001196  87.0360 273.0769 15.08834765 61281,6917.896,95.438,540.589,538.934,0.0
53551.0,STARLINK-4514,PAYLOAD,2023-09-28 13:35:21,15.08839668,0.0001154,53.2163,113.5032,96.2652,263.8472,8.3484e-05,1.041e-05,0.0,0 STARLINK-4514,1 53551U 22101AA  23271.56622209  .00001041  00000-0  83484-4 0  9999,2 53551  53.2163 113.5032 0001154  96.2652 263.8472 15.08839668 62135,6917.881,95.438,540.545,538.948,0.0
53551.0,STARLINK-4514,PAYLOAD,2023-09-28 18:21:30,15.08843394,0.0001153,53.2157,112.6128,90.3063,269.8061,0.0001112,1.483e-05,0.0,0 STARLINK-4514,1 53551U 22101AA  23271.76493855  .00001483  00000-0  11120-3 0  9991,2 53551  53.2157 112.6128 0001153  90.3063 269.8061 15.08843394 61505,6917.87,95.437,540.533,538.937,0.0
53551.0,STARLINK-4514,PAYLOAD,2023-09-29 13:26:08,15.08840388,0.0001135,53.2155,109.0453,86.8271,273.2851,5.716e-05,6.22e-06,0.0,0 STARLINK-4514,1 53551U 22101AA  23272.55982100  .00000622  00000-0  57160-4 0  9994,2 53551  53.2155 109.0453 0001135  86.8271 273.2851 15.08840388 62287,6917.879,95.438,540.529,538.959,0.0
53551.0,STARLINK-4514,PAYLOAD,2023-09-29 22:58:27,15.0881237,0.0001064,53.218,107.2623,106.6284,253.4825,0.00050241,7.711e-05,0.0,0 STARLINK-4514,1 53551U 22101AA  23272.95726004  .00007711  00000-0  50241-3 0  9995,2 53551  53.2180 107.2623 0001064 106.6284 253.4825 15.08812370 61684,6917.965,95.439,540.566,539.094,0.0
53551.0,STARLINK-4514,PAYLOAD,2023-09-30 22:49:14,15.08839926,0.0001387,53.217,102.7987,105.2585,254.8561,-6.2272e-05,-1.279e-05,0.0,0 STARLINK-4514,1 53551U 22101AA  23273.95086347 -.00001279  00000-0 -62272-4 0  9998,2 53551  53.2170 102.7987 0001387 105.2585 254.8561 15.08839926 61838,6917.881,95.438,540.705,538.786,0.0
53551.0,STARLINK-4514,PAYLOAD,2023-10-01 13:07:42,15.08841324,0.0001329,53.2174,100.1215,102.6244,257.4897,-3.5176e-05,-8.48e-06,0.0,0 STARLINK-4514,1 53551U 22101AA  23274.54702180 -.00000848  00000-0 -35176-4 0  9998,2 53551  53.2174 100.1215 0001329 102.6244 257.4897 15.08841324 62586,6917.876,95.437,540.661,538.822,0.0
53551.0,STARLINK-4514,PAYLOAD,2023-10-01 19:29:14,15.08845848,0.0001295,53.2173,98.9353,94.7625,265.3515,2.406e-05,9.5e-07,0.0,0 STARLINK-4514,1 53551U 22101AA  23274.81197674  .00000095  00000-0  24060-4 0  9996,2 53551  53.2173  98.9353 0001295  94.7625 265.3515 15.08845848 61969,6917.863,95.437,540.623,538.832,0.0
53551.0,STARLINK-4514,PAYLOAD,2023-10-02 05:01:34,15.08836298,0.0001293,53.217,97.1517,103.1423,256.9714,-2.7937e-05,-7.32e-06,0.0,0 STARLINK-4514,1 53551U 22101AA  23275.20942410 -.00000732  00000-0 -27937-4 0  9992,2 53551  53.2170  97.1517 0001293 103.1423 256.9714 15.08836298 62022,6917.892,95.438,540.651,538.862,0.0
53551.0,STARLINK-4514,PAYLOAD,2023-10-02 16:09:16,15.08829745,0.0001398,53.2176,95.071,102.3205,257.7943,-5.959e-06,-3.83e-06,0.0,0 STARLINK-4514,1 53551U 22101AA  23275.67311036 -.00000383  00000-0 -59590-5 0  9990,2 53551  53.2176  95.0710 0001398 102.3205 257.7943 15.08829745 62094,6917.912,95.438,540.744,538.81,0.0
53551.0,STARLINK-4514,PAYLOAD,2023-10-03 11:13:54,15.08835909,0.0001395,53.2173,91.4999,89.5156,270.5996,2.7467e-05,1.49e-06,0.0,0 STARLINK-4514,1 53551U 22101AA  23276.46798748  .00000149  00000-0  27467-4 0  9992,2 53551  53.2173  91.4999 0001395  89.5156 270.5996 15.08835909 62212,6917.893,95.438,540.723,538.793,0.0
53551.0,STARLINK-4514,PAYLOAD,2023-10-03 20:46:12,15.08845304,0.0001419,53.2175,89.7158,90.3418,269.7736,1.5081e-05,-4.8e-07,0.0,0 STARLINK-4514,1 53551U 22101AA  23276.86542235 -.00000048  00000-0  15081-4 0  9992,2 53551  53.2175  89.7158 0001419  90.3418 269.7736 15.08845304 62930,6917.864,95.437,540.711,538.748,0.0
53551.0,STARLINK-4514,PAYLOAD,2023-10-04 11:04:40,15.08836726,0.0001585,53.2182,87.0393,88.8803,271.2371,8.061e-05,9.95e-06,0.0,0 STARLINK-4514,1 53551U 22101AA  23277.46158545  .00000995  00000-0  80610-4 0  9996,2 53551  53.2182  87.0393 0001585  88.8803 271.2371 15.08836726 62362,6917.89,95.438,540.852,538.659,0.0
53551.0,STARLINK-4514,PAYLOAD,2023-10-04 19:01:36,15.08845347,0.0001472,53.2177,85.5524,93.5699,266.5462,8.8167e-05,1.116e-05,0.0,0 STARLINK-4514,1 53551U 22101AA  23277.79277907  .00001116  00000-0  88167-4 0  9997,2 53551  53.2177  85.5524 0001472  93.5699 266.5462 15.08845347 62419,6917.864,95.437,540.747,538.711,0.0
53551.0,STARLINK-4514,PAYLOAD,2023-10-05 10:55:28,15.08836941,0.0001692,53.2174,82.5787,81.7975,278.3209,-3.7546e-07,-2.94e-06,0.0,0 STARLINK-4514,1 53551U 22101AA  23278.45518937 -.00000294  00000-0 -37546-6 0  9997,2 53551  53.2174  82.5787 0001692  81.7975 278.3209 15.08836941 62515,6917.89,95.438,540.925,538.584,0.0
53551.0,STARLINK-4514,PAYLOAD,2023-10-05 17:17:00,15.08841574,0.0001524,53.2173,81.3876,89.0289,271.0878,-1.6822e-05,-5.56e-06,0.0,0 STARLINK-4514,1 53551U 22101AA  23278.72014484 -.00000556  00000-0 -16822-4 0  9998,2 53551  53.2173  81.3876 0001524  89.0289 271.0878 15.08841574 63211,6917.876,95.437,540.795,538.686,0.0
53551.0,STARLINK-4514,PAYLOAD,2023-10-06 13:57:01,15.0883922,0.0001453,53.217,77.5229,82.4007,277.7151,-6.614e-05,-1.34e-05,0.0,0 STARLINK-4514,1 53551U 22101AA  23279.58126869 -.00001340  00000-0 -66140-4 0  9994,2 53551  53.2170  77.5229 0001453  82.4007 277.7151 15.08839220 63349,6917.883,95.438,540.753,538.743,0.0
53551.0,STARLINK-4514,PAYLOAD,2023-10-06 17:07:47,15.08841566,0.0001387,53.2172,76.9284,78.9733,281.1415,-4.7949e-05,-1.051e-05,0.0,0 STARLINK-4514,1 53551U 22101AA  23279.71374659 -.00001051  00000-0 -47949-4 0  9996,2 53551  53.2172  76.9284 0001387  78.9733 281.1415 15.08841566 62704,6917.876,95.437,540.7,538.781,0.0
53551.0,STARLINK-4514,PAYLOAD,2023-10-07 10:37:02,15.08824247,0.0001625,53.218,73.6582,82.7757,277.342,0.00017138,2.439e-05,0.0,0 STARLINK-4514,1 53551U 22101AA  23280.44239014  .00002439  00000-0  17138-3 0  9998,2 53551  53.2180  73.6582 0001625  82.7757 277.3420 15.08824247 62814,6917.929,95.439,540.918,538.669,0.0
53551.0,STARLINK-4514,PAYLOAD,2023-10-07 13:47:48,15.08832167,0.0001609,53.2179,73.0639,80.307,279.8104,0.00010329,1.356e-05,0.0,0 STARLINK-4514,1 53551U 22101AA  23280.57486809  .00001356  00000-0  10329-3 0  9990,2 53551  53.2179  73.0639 0001609  80.3070 279.8104 15.08832167 63494,6917.904,95.438,540.882,538.656,0.0
53551.0,STARLINK-4514,PAYLOAD,2023-10-07 16:58:34,15.08838093,0.0001396,53.2178,72.4683,87.3472,272.768,7.9233e-05,9.73e-06,0.0,0 STARLINK-4514,1 53551U 22101AA  23280.70734445  .00000973  00000-0  79233-4 0  9991,2 53551  53.2178  72.4683 0001396  87.3472 272.7680 15.08838093 62855,6917.886,95.438,540.717,538.785,0.0
53551.0,STARLINK-4514,PAYLOAD,2023-10-08 10:27:49,15.08838067,0.0001569,53.2183,69.1983,101.1369,258.98,-6.0267e-05,-1.247e-05,0.0,0 STARLINK-4514,1 53551U 22101AA  23281.43599181 -.00001247  00000-0 -60267-4 0  9992,2 53551  53.2183  69.1983 0001569 101.1369 258.9800 15.08838067 62962,6917.886,95.438,540.837,538.666,0.0
53551.0,STARLINK-4514,PAYLOAD,2023-10-08 13:38:35,15.08836532,0.0001382,53.218,68.604,82.6145,277.5004,1.5824e-06,-2.63e-06,0.0,0 STARLINK-4514,1 53551U 22101AA  23281.56847070 -.00000263  00000-0  15824-5 0  9995,2 53551  53.2180  68.6040 0001382  82.6145 277.5004 15.08836532 63649,6917.891,95.438,540.712,538.8,0.0
53551.0,STARLINK-4514,PAYLOAD,2023-10-08 20:00:07,15.08844661,0.000128,53.2168,67.4114,72.2129,287.9003,5.449e-05,5.8e-06,0.0,0 STARLINK-4514,1 53551U 22101AA  23281.83342332  .00000580  00000-0  54490-4 0  9998,2 53551  53.2168  67.4114 0001280  72.2129 287.9003 15.08844661 63688,6917.866,95.437,540.617,538.846,0.0
53551.0,STARLINK-4514,PAYLOAD,2023-10-09 02:21:41,15.08824471,9.83e-05,53.2178,66.2238,99.7535,260.3568,-0.00010251,-1.918e-05,0.0,0 STARLINK-4514,1 53551U 22101AA  23282.09839917 -.00001918  00000-0 -10251-3 0  9991,2 53551  53.2178  66.2238 0000983  99.7535 260.3568 15.08824471 63067,6917.928,95.439,540.473,539.113,0.0
53551.0,STARLINK-4514,PAYLOAD,2023-10-09 13:29:23,15.0883516,0.0001275,53.2175,64.139,86.4933,273.6205,-4.9133e-05,-1.07e-05,0.0,0 STARLINK-4514,1 53551U 22101AA  23282.56207387 -.00001070  00000-0 -49133-4 0  9994,2 53551  53.2175  64.1390 0001275  86.4933 273.6205 15.08835160 63792,6917.895,95.438,540.642,538.878,0.0
53551.0,STARLINK-4514,PAYLOAD,2023-10-09 16:40:08,15.08844071,0.0001334,53.2186,63.549,96.5924,263.522,4.3622e-05,4.06e-06,0.0,0 STARLINK-4514,1 53551U 22101AA  23282.69454546  .00000406  00000-0  43622-4 0  9996,2 53551  53.2186  63.5490 0001334  96.5924 263.5220 15.08844071 63152,6917.868,95.437,540.656,538.81,0.0
53551.0,STARLINK-4514,PAYLOAD,2023-10-10 10:09:23,15.08840107,0.0001264,53.2186,60.2777,99.6829,260.4306,6.7265e-06,-1.81e-06,0.0,0 STARLINK-4514,1 53551U 22101AA  23283.42318915 -.00000181  00000-0  67265-5 0  9998,2 53551  53.2186  60.2777 0001264  99.6829 260.4306 15.08840107 63263,6917.88,95.438,540.619,538.871,0.0
